[Satellite]
VERSION=1.1
NAME=IRNSS-1A
NICKNAME=IRNSS-1A
TLE1=1 39199U 13034A   17185.38088734  .00000087  00000-0  00000-0 0  9990
TLE2=2 39199  28.8467 114.7405 0018005 185.9750 173.9116  1.00272584 14865
